KUIPER-00191            
1 67143U 25301L   26192.19678441  .00001070  00000+0  16934-3 0  9995
2 67143  51.8999 247.0010 0000605 102.8232 257.2798 14.79933608 31944
KUIPER-00196            
1 67144U 25301M   26192.05945127  .00000963  00000+0  16803-3 0  9994
2 67144  51.8975 203.8871 0001031 339.2799  20.8120 14.76342601 32502
KUIPER-00204            
1 67145U 25301N   26192.05760755  .00001023  00000+0  16325-3 0  9994
2 67145  51.9004 220.1001 0000251  48.9069 311.1915 14.79924742 32391
KUIPER-00210            
1 67146U 25301P   26191.48772501  .00000459  00000+0  89237-4 0  9998
2 67146  51.8989 250.0888 0000520  84.7066 275.3955 14.79925843 31984
KUIPER-00221            
1 67147U 25301Q   26192.18868145  .00001563  00000+0  23389-3 0  9999
2 67147  51.9017 254.5150 0000463  84.4592 275.6423 14.79939378 31819
KUIPER-00232            
1 67148U 25301R   26192.17110410  .00001662  00000+0  24698-3 0  9998
2 67148  51.8968 239.6144 0000815 116.4980 243.6066 14.79937460 32010
KUIPER-00241            
1 67149U 25301S   26191.72134244  .00000162  00000+0  50250-4 0  9998
2 67149  51.9016 251.6021 0000468  88.1835 271.9181 14.79929881 32146
KUIPER-00245            
1 67150U 25301T   26192.18597119 -.00000124  00000+0  12676-4 0  9994
2 67150  51.9010 257.0585 0000644 113.7921 246.3109 14.79930367 31779
KUIPER-00246            
1 67151U 25301U   26192.16841757  .00001433  00000+0  21696-3 0  9997
2 67151  51.9001 242.0891 0001328 119.9019 240.2075 14.79927489 32003
KUIPER-00247            
1 67152U 25301V   26192.11166672  .00000170  00000+0  51282-4 0  9991
2 67152  51.8952 232.3135 0000543  95.1807 264.9217 14.79925168 32114
KUIPER-00248            
1 67153U 25301W   26191.59033391  .00016287  00000+0  21602-2 0  9991
2 67153  51.8943 217.2442 0001179  79.4717 280.6378 14.79934760 32446
KUIPER-00249            
1 67154U 25301X   26191.43906955  .00001539  00000+0  23088-3 0  9995
2 67154  51.8980 232.8452 0000377  91.5518 268.5488 14.79931663 32047
KUIPER-00250            
1 67155U 25301Y   26192.13192499  .00001285  00000+0  19752-3 0  9995
2 67155  51.8968 244.7352 0000732  90.3849 269.7197 14.79935036 31973
KUIPER-00251            
1 67156U 25301Z   26192.14544576  .00000228  00000+0  58870-4 0  9995
2 67156  51.9001 232.2434 0000406  55.8758 304.2243 14.79924023 32308
KUIPER-00252            
1 67157U 25301AA  26192.14274400  .00000777  00000+0  13092-3 0  9997
2 67157  51.8989 234.7060 0000526  96.8189 263.2833 14.79923151 32086
KUIPER-00261            
1 67158U 25301AB  26192.16572344  .00001216  00000+0  18851-3 0  9995
2 67158  51.9009 244.6577 0000477  93.1124 266.9893 14.79931286 31946
