{"fetched_at":"2026-07-11T09:23:55.576Z","source":"https://celestrak.org/NORAD/elements/gp.php?GROUP=kuiper&FORMAT=JSON","constellation":"kuiper","records":[{"OBJECT_NAME":"KUIPER-00191","OBJECT_ID":"2025-301L","EPOCH":"2026-07-11T04:43:22.173024","CLASSIFICATION_TYPE":"U","MEAN_MOTION":14.79933608,"ECCENTRICITY":0.0000605,"INCLINATION":51.8999,"RA_OF_ASC_NODE":247.001,"ARG_OF_PERICENTER":102.8232,"MEAN_ANOMALY":257.2798,"EPHEMERIS_TYPE":0,"NORAD_CAT_ID":67143,"ELEMENT_SET_NO":999,"REV_AT_EPOCH":3194,"BSTAR":0.00016934,"MEAN_MOTION_DOT":0.0000107,"MEAN_MOTION_DDOT":0},{"OBJECT_NAME":"KUIPER-00196","OBJECT_ID":"2025-301M","EPOCH":"2026-07-11T01:25:36.589728","CLASSIFICATION_TYPE":"U","MEAN_MOTION":14.76342601,"ECCENTRICITY":0.0001031,"INCLINATION":51.8975,"RA_OF_ASC_NODE":203.8871,"ARG_OF_PERICENTER":339.2799,"MEAN_ANOMALY":20.812,"EPHEMERIS_TYPE":0,"NORAD_CAT_ID":67144,"ELEMENT_SET_NO":999,"REV_AT_EPOCH":3250,"BSTAR":0.00016803,"MEAN_MOTION_DOT":0.00000963,"MEAN_MOTION_DDOT":0},{"OBJECT_NAME":"KUIPER-00204","OBJECT_ID":"2025-301N","EPOCH":"2026-07-11T01:22:57.292320","CLASSIFICATION_TYPE":"U","MEAN_MOTION":14.79924742,"ECCENTRICITY":0.0000251,"INCLINATION":51.9004,"RA_OF_ASC_NODE":220.1001,"ARG_OF_PERICENTER":48.9069,"MEAN_ANOMALY":311.1915,"EPHEMERIS_TYPE":0,"NORAD_CAT_ID":67145,"ELEMENT_SET_NO":999,"REV_AT_EPOCH":3239,"BSTAR":0.00016325,"MEAN_MOTION_DOT":0.00001023,"MEAN_MOTION_DDOT":0},{"OBJECT_NAME":"KUIPER-00210","OBJECT_ID":"2025-301P","EPOCH":"2026-07-10T11:42:19.440864","CLASSIFICATION_TYPE":"U","MEAN_MOTION":14.79925843,"ECCENTRICITY":0.000052,"INCLINATION":51.8989,"RA_OF_ASC_NODE":250.0888,"ARG_OF_PERICENTER":84.7066,"MEAN_ANOMALY":275.3955,"EPHEMERIS_TYPE":0,"NORAD_CAT_ID":67146,"ELEMENT_SET_NO":999,"REV_AT_EPOCH":3198,"BSTAR":0.000089237,"MEAN_MOTION_DOT":0.00000459,"MEAN_MOTION_DDOT":0},{"OBJECT_NAME":"KUIPER-00221","OBJECT_ID":"2025-301Q","EPOCH":"2026-07-11T04:31:42.077280","CLASSIFICATION_TYPE":"U","MEAN_MOTION":14.79939378,"ECCENTRICITY":0.0000463,"INCLINATION":51.9017,"RA_OF_ASC_NODE":254.515,"ARG_OF_PERICENTER":84.4592,"MEAN_ANOMALY":275.6423,"EPHEMERIS_TYPE":0,"NORAD_CAT_ID":67147,"ELEMENT_SET_NO":999,"REV_AT_EPOCH":3181,"BSTAR":0.00023389,"MEAN_MOTION_DOT":0.00001563,"MEAN_MOTION_DDOT":0},{"OBJECT_NAME":"KUIPER-00232","OBJECT_ID":"2025-301R","EPOCH":"2026-07-11T04:06:23.394240","CLASSIFICATION_TYPE":"U","MEAN_MOTION":14.7993746,"ECCENTRICITY":0.0000815,"INCLINATION":51.8968,"RA_OF_ASC_NODE":239.6144,"ARG_OF_PERICENTER":116.498,"MEAN_ANOMALY":243.6066,"EPHEMERIS_TYPE":0,"NORAD_CAT_ID":67148,"ELEMENT_SET_NO":999,"REV_AT_EPOCH":3201,"BSTAR":0.00024698,"MEAN_MOTION_DOT":0.00001662,"MEAN_MOTION_DDOT":0},{"OBJECT_NAME":"KUIPER-00241","OBJECT_ID":"2025-301S","EPOCH":"2026-07-10T17:18:43.986816","CLASSIFICATION_TYPE":"U","MEAN_MOTION":14.79929881,"ECCENTRICITY":0.0000468,"INCLINATION":51.9016,"RA_OF_ASC_NODE":251.6021,"ARG_OF_PERICENTER":88.1835,"MEAN_ANOMALY":271.9181,"EPHEMERIS_TYPE":0,"NORAD_CAT_ID":67149,"ELEMENT_SET_NO":999,"REV_AT_EPOCH":3214,"BSTAR":0.00005025,"MEAN_MOTION_DOT":0.00000162,"MEAN_MOTION_DDOT":0},{"OBJECT_NAME":"KUIPER-00245","OBJECT_ID":"2025-301T","EPOCH":"2026-07-11T04:27:47.910816","CLASSIFICATION_TYPE":"U","MEAN_MOTION":14.79930367,"ECCENTRICITY":0.0000644,"INCLINATION":51.901,"RA_OF_ASC_NODE":257.0585,"ARG_OF_PERICENTER":113.7921,"MEAN_ANOMALY":246.3109,"EPHEMERIS_TYPE":0,"NORAD_CAT_ID":67150,"ELEMENT_SET_NO":999,"REV_AT_EPOCH":3177,"BSTAR":0.000012676,"MEAN_MOTION_DOT":-0.00000124,"MEAN_MOTION_DDOT":0},{"OBJECT_NAME":"KUIPER-00246","OBJECT_ID":"2025-301U","EPOCH":"2026-07-11T04:02:31.278048","CLASSIFICATION_TYPE":"U","MEAN_MOTION":14.79927489,"ECCENTRICITY":0.0001328,"INCLINATION":51.9001,"RA_OF_ASC_NODE":242.0891,"ARG_OF_PERICENTER":119.9019,"MEAN_ANOMALY":240.2075,"EPHEMERIS_TYPE":0,"NORAD_CAT_ID":67151,"ELEMENT_SET_NO":999,"REV_AT_EPOCH":3200,"BSTAR":0.00021696,"MEAN_MOTION_DOT":0.00001433,"MEAN_MOTION_DDOT":0},{"OBJECT_NAME":"KUIPER-00247","OBJECT_ID":"2025-301V","EPOCH":"2026-07-11T02:40:48.004608","CLASSIFICATION_TYPE":"U","MEAN_MOTION":14.79925168,"ECCENTRICITY":0.0000543,"INCLINATION":51.8952,"RA_OF_ASC_NODE":232.3135,"ARG_OF_PERICENTER":95.1807,"MEAN_ANOMALY":264.9217,"EPHEMERIS_TYPE":0,"NORAD_CAT_ID":67152,"ELEMENT_SET_NO":999,"REV_AT_EPOCH":3211,"BSTAR":0.000051282,"MEAN_MOTION_DOT":0.0000017,"MEAN_MOTION_DDOT":0},{"OBJECT_NAME":"KUIPER-00248","OBJECT_ID":"2025-301W","EPOCH":"2026-07-10T14:10:04.849824","CLASSIFICATION_TYPE":"U","MEAN_MOTION":14.7993476,"ECCENTRICITY":0.0001179,"INCLINATION":51.8943,"RA_OF_ASC_NODE":217.2442,"ARG_OF_PERICENTER":79.4717,"MEAN_ANOMALY":280.6378,"EPHEMERIS_TYPE":0,"NORAD_CAT_ID":67153,"ELEMENT_SET_NO":999,"REV_AT_EPOCH":3244,"BSTAR":0.0021602,"MEAN_MOTION_DOT":0.00016287,"MEAN_MOTION_DDOT":0},{"OBJECT_NAME":"KUIPER-00249","OBJECT_ID":"2025-301X","EPOCH":"2026-07-10T10:32:15.609120","CLASSIFICATION_TYPE":"U","MEAN_MOTION":14.79931663,"ECCENTRICITY":0.0000377,"INCLINATION":51.898,"RA_OF_ASC_NODE":232.8452,"ARG_OF_PERICENTER":91.5518,"MEAN_ANOMALY":268.5488,"EPHEMERIS_TYPE":0,"NORAD_CAT_ID":67154,"ELEMENT_SET_NO":999,"REV_AT_EPOCH":3204,"BSTAR":0.00023088,"MEAN_MOTION_DOT":0.00001539,"MEAN_MOTION_DDOT":0},{"OBJECT_NAME":"KUIPER-00250","OBJECT_ID":"2025-301Y","EPOCH":"2026-07-11T03:09:58.319136","CLASSIFICATION_TYPE":"U","MEAN_MOTION":14.79935036,"ECCENTRICITY":0.0000732,"INCLINATION":51.8968,"RA_OF_ASC_NODE":244.7352,"ARG_OF_PERICENTER":90.3849,"MEAN_ANOMALY":269.7197,"EPHEMERIS_TYPE":0,"NORAD_CAT_ID":67155,"ELEMENT_SET_NO":999,"REV_AT_EPOCH":3197,"BSTAR":0.00019752,"MEAN_MOTION_DOT":0.00001285,"MEAN_MOTION_DDOT":0},{"OBJECT_NAME":"KUIPER-00251","OBJECT_ID":"2025-301Z","EPOCH":"2026-07-11T03:29:26.513664","CLASSIFICATION_TYPE":"U","MEAN_MOTION":14.79924023,"ECCENTRICITY":0.0000406,"INCLINATION":51.9001,"RA_OF_ASC_NODE":232.2434,"ARG_OF_PERICENTER":55.8758,"MEAN_ANOMALY":304.2243,"EPHEMERIS_TYPE":0,"NORAD_CAT_ID":67156,"ELEMENT_SET_NO":999,"REV_AT_EPOCH":3230,"BSTAR":0.00005887,"MEAN_MOTION_DOT":0.00000228,"MEAN_MOTION_DDOT":0},{"OBJECT_NAME":"KUIPER-00252","OBJECT_ID":"2025-301AA","EPOCH":"2026-07-11T03:25:33.081600","CLASSIFICATION_TYPE":"U","MEAN_MOTION":14.79923151,"ECCENTRICITY":0.0000526,"INCLINATION":51.8989,"RA_OF_ASC_NODE":234.706,"ARG_OF_PERICENTER":96.8189,"MEAN_ANOMALY":263.2833,"EPHEMERIS_TYPE":0,"NORAD_CAT_ID":67157,"ELEMENT_SET_NO":999,"REV_AT_EPOCH":3208,"BSTAR":0.00013092,"MEAN_MOTION_DOT":0.00000777,"MEAN_MOTION_DDOT":0},{"OBJECT_NAME":"KUIPER-00261","OBJECT_ID":"2025-301AB","EPOCH":"2026-07-11T03:58:38.505216","CLASSIFICATION_TYPE":"U","MEAN_MOTION":14.79931286,"ECCENTRICITY":0.0000477,"INCLINATION":51.9009,"RA_OF_ASC_NODE":244.6577,"ARG_OF_PERICENTER":93.1124,"MEAN_ANOMALY":266.9893,"EPHEMERIS_TYPE":0,"NORAD_CAT_ID":67158,"ELEMENT_SET_NO":999,"REV_AT_EPOCH":3194,"BSTAR":0.00018851,"MEAN_MOTION_DOT":0.00001216,"MEAN_MOTION_DDOT":0}]}
